ONEWEB-0592             
1 54658U 22166S   25357.16671516  .00000108  00000+0  22927-3 0  9993
2 54658  87.9236 279.0629 0001776  79.1747 280.9587 13.21826468148188
ONEWEB-0593             
1 54659U 22166T   25357.18974313  .00000056  00000+0  10427-3 0  9991
2 54659  87.9226 279.0843 0001894  76.9025 283.2320 13.21828240148294
ONEWEB-0594             
1 54660U 22166U   25357.20950203  .00000131  00000+0  28459-3 0  9996
2 54660  87.9226 279.0984 0001770  73.7962 286.3366 13.21826064148319
ONEWEB-0595             
1 54661U 22166V   25357.18645957  .00000037  00000+0  57002-4 0  9993
2 54661  87.9224 279.0758 0001605  72.0906 288.0402 13.21826046148280
ONEWEB-0596             
1 54662U 22166W   25357.23583060  .00000101  00000+0  21375-3 0  9991
2 54662  87.9227 279.0828 0001683  76.1063 284.0258 13.21825841148295
ONEWEB-0597             
1 54663U 22166X   25357.21772981  .00000171  00000+0  38278-3 0  9999
2 54663  87.9227 279.0913 0001803  79.0387 281.0949 13.21826696148299
ONEWEB-0600             
1 54664U 22166Y   25357.19962508  .00000037  00000+0  58729-4 0  9998
2 54664  87.9224 279.0858 0001908  76.1636 283.9710 13.21826076148262
ONEWEB-0601             
1 54665U 22166Z   25357.19139687  .00000031  00000+0  42814-4 0  9995
2 54665  87.9227 279.1056 0001933  83.6591 276.4763 13.21826539148458
ONEWEB-0602             
1 54666U 22166AA  25357.23170440  .00000591  00000+0  13991-2 0  9996
2 54666  87.9220 279.1014 0001999  71.6004 288.5347 13.21822238148302
ONEWEB-0603             
1 54667U 22166AB  25357.23744828  .00002085  00000+0  50145-2 0  9996
2 54667  87.9235 279.0405 0001967  78.4272 281.7083 13.21843839148233
ONEWEB-0604             
1 54668U 22166AC  25357.15026055 -.00000001  00000+0 -34724-4 0  9998
2 54668  87.9224 279.0766 0001741  73.9555 286.1771 13.21824509148186
ONEWEB-0605             
1 54669U 22166AD  25357.06798267 -.00000002  00000+0 -35951-4 0  9994
2 54669  87.9222 279.1208 0001840  96.1943 263.9401 13.21826535148246
ONEWEB-0606             
1 54670U 22166AE  25357.16506757 -.00000015  00000+0 -66683-4 0  9998
2 54670  87.9219 279.1134 0001542  75.8435 284.2870 13.21826305148310
ONEWEB-0607             
1 54671U 22166AF  25357.20785167  .00000153  00000+0  33920-3 0  9996
2 54671  87.9225 279.0678 0001878  77.8621 282.2724 13.21826852148291
ONEWEB-0608             
1 54672U 22166AG  25357.21443700  .00000106  00000+0  22424-3 0  9997
2 54672  87.9229 279.0556 0002017  88.8569 271.2796 13.21825594148301
ONEWEB-0610             
1 54673U 22166AH  25357.19468980  .00000094  00000+0  19627-3 0  9999
2 54673  87.9225 279.0911 0002132  91.2141 268.9238 13.21825253148200
