[{"OBJECT_NAME":"ONEWEB-0592","OBJECT_ID":"2022-166S","EPOCH":"2025-12-23T04:00:04.189824","MEAN_MOTION":13.21826468,"ECCENTRICITY":0.0001776,"INCLINATION":87.9236,"RA_OF_ASC_NODE":279.0629,"ARG_OF_PERICENTER":79.1747,"MEAN_ANOMALY":280.9587,"EPHEMERIS_TYPE":0,"CLASSIFICATION_TYPE":"U","NORAD_CAT_ID":54658,"ELEMENT_SET_NO":999,"REV_AT_EPOCH":14818,"BSTAR":0.00022927094,"MEAN_MOTION_DOT":1.08e-6,"MEAN_MOTION_DDOT":0},{"OBJECT_NAME":"ONEWEB-0593","OBJECT_ID":"2022-166T","EPOCH":"2025-12-23T04:33:13.806432","MEAN_MOTION":13.2182824,"ECCENTRICITY":0.00018945,"INCLINATION":87.9226,"RA_OF_ASC_NODE":279.0843,"ARG_OF_PERICENTER":76.9025,"MEAN_ANOMALY":283.232,"EPHEMERIS_TYPE":0,"CLASSIFICATION_TYPE":"U","NORAD_CAT_ID":54659,"ELEMENT_SET_NO":999,"REV_AT_EPOCH":14829,"BSTAR":0.00010427458,"MEAN_MOTION_DOT":5.6e-7,"MEAN_MOTION_DDOT":0},{"OBJECT_NAME":"ONEWEB-0594","OBJECT_ID":"2022-166U","EPOCH":"2025-12-23T05:01:40.975392","MEAN_MOTION":13.21826064,"ECCENTRICITY":0.00017701,"INCLINATION":87.9226,"RA_OF_ASC_NODE":279.0984,"ARG_OF_PERICENTER":73.7962,"MEAN_ANOMALY":286.3366,"EPHEMERIS_TYPE":0,"CLASSIFICATION_TYPE":"U","NORAD_CAT_ID":54660,"ELEMENT_SET_NO":999,"REV_AT_EPOCH":14831,"BSTAR":0.00028458932,"MEAN_MOTION_DOT":1.31e-6,"MEAN_MOTION_DDOT":0},{"OBJECT_NAME":"ONEWEB-0595","OBJECT_ID":"2022-166V","EPOCH":"2025-12-23T04:28:30.106848","MEAN_MOTION":13.21826046,"ECCENTRICITY":0.00016051,"INCLINATION":87.9224,"RA_OF_ASC_NODE":279.0758,"ARG_OF_PERICENTER":72.0906,"MEAN_ANOMALY":288.0402,"EPHEMERIS_TYPE":0,"CLASSIFICATION_TYPE":"U","NORAD_CAT_ID":54661,"ELEMENT_SET_NO":999,"REV_AT_EPOCH":14828,"BSTAR":5.700227e-5,"MEAN_MOTION_DOT":3.7e-7,"MEAN_MOTION_DDOT":0},{"OBJECT_NAME":"ONEWEB-0596","OBJECT_ID":"2022-166W","EPOCH":"2025-12-23T05:39:35.763840","MEAN_MOTION":13.21825841,"ECCENTRICITY":0.00016832,"INCLINATION":87.9227,"RA_OF_ASC_NODE":279.0828,"ARG_OF_PERICENTER":76.1063,"MEAN_ANOMALY":284.0258,"EPHEMERIS_TYPE":0,"CLASSIFICATION_TYPE":"U","NORAD_CAT_ID":54662,"ELEMENT_SET_NO":999,"REV_AT_EPOCH":14829,"BSTAR":0.00021375398,"MEAN_MOTION_DOT":1.01e-6,"MEAN_MOTION_DDOT":0},{"OBJECT_NAME":"ONEWEB-0597","OBJECT_ID":"2022-166X","EPOCH":"2025-12-23T05:13:31.855584","MEAN_MOTION":13.21826696,"ECCENTRICITY":0.00018039,"INCLINATION":87.9227,"RA_OF_ASC_NODE":279.0913,"ARG_OF_PERICENTER":79.0387,"MEAN_ANOMALY":281.0949,"EPHEMERIS_TYPE":0,"CLASSIFICATION_TYPE":"U","NORAD_CAT_ID":54663,"ELEMENT_SET_NO":999,"REV_AT_EPOCH":14829,"BSTAR":0.00038277542,"MEAN_MOTION_DOT":1.71e-6,"MEAN_MOTION_DDOT":0},{"OBJECT_NAME":"ONEWEB-0600","OBJECT_ID":"2022-166Y","EPOCH":"2025-12-23T04:47:27.606912","MEAN_MOTION":13.21826076,"ECCENTRICITY":0.00019081,"INCLINATION":87.9224,"RA_OF_ASC_NODE":279.0858,"ARG_OF_PERICENTER":76.1636,"MEAN_ANOMALY":283.971,"EPHEMERIS_TYPE":0,"CLASSIFICATION_TYPE":"U","NORAD_CAT_ID":54664,"ELEMENT_SET_NO":999,"REV_AT_EPOCH":14826,"BSTAR":5.8729219e-5,"MEAN_MOTION_DOT":3.7e-7,"MEAN_MOTION_DDOT":0},{"OBJECT_NAME":"ONEWEB-0601","OBJECT_ID":"2022-166Z","EPOCH":"2025-12-23T04:35:36.689568","MEAN_MOTION":13.21826539,"ECCENTRICITY":0.00019334,"INCLINATION":87.9227,"RA_OF_ASC_NODE":279.1056,"ARG_OF_PERICENTER":83.6591,"MEAN_ANOMALY":276.4763,"EPHEMERIS_TYPE":0,"CLASSIFICATION_TYPE":"U","NORAD_CAT_ID":54665,"ELEMENT_SET_NO":999,"REV_AT_EPOCH":14845,"BSTAR":4.2813994e-5,"MEAN_MOTION_DOT":3.1e-7,"MEAN_MOTION_DDOT":0},{"OBJECT_NAME":"ONEWEB-0602","OBJECT_ID":"2022-166AA","EPOCH":"2025-12-23T05:33:39.260160","MEAN_MOTION":13.21822238,"ECCENTRICITY":0.00019998,"INCLINATION":87.922,"RA_OF_ASC_NODE":279.1014,"ARG_OF_PERICENTER":71.6004,"MEAN_ANOMALY":288.5347,"EPHEMERIS_TYPE":0,"CLASSIFICATION_TYPE":"U","NORAD_CAT_ID":54666,"ELEMENT_SET_NO":999,"REV_AT_EPOCH":14830,"BSTAR":0.0013991013,"MEAN_MOTION_DOT":5.91e-6,"MEAN_MOTION_DDOT":0},{"OBJECT_NAME":"ONEWEB-0603","OBJECT_ID":"2022-166AB","EPOCH":"2025-12-23T05:41:55.531392","MEAN_MOTION":13.21843839,"ECCENTRICITY":0.00019677,"INCLINATION":87.9235,"RA_OF_ASC_NODE":279.0405,"ARG_OF_PERICENTER":78.4272,"MEAN_ANOMALY":281.7083,"EPHEMERIS_TYPE":0,"CLASSIFICATION_TYPE":"U","NORAD_CAT_ID":54667,"ELEMENT_SET_NO":999,"REV_AT_EPOCH":14823,"BSTAR":0.0050145118,"MEAN_MOTION_DOT":2.085e-5,"MEAN_MOTION_DDOT":0},{"OBJECT_NAME":"ONEWEB-0604","OBJECT_ID":"2022-166AC","EPOCH":"2025-12-23T03:36:22.511520","MEAN_MOTION":13.21824509,"ECCENTRICITY":0.00017415,"INCLINATION":87.9224,"RA_OF_ASC_NODE":279.0766,"ARG_OF_PERICENTER":73.9555,"MEAN_ANOMALY":286.1771,"EPHEMERIS_TYPE":0,"CLASSIFICATION_TYPE":"U","NORAD_CAT_ID":54668,"ELEMENT_SET_NO":999,"REV_AT_EPOCH":14818,"BSTAR":-3.4724195e-5,"MEAN_MOTION_DOT":-1.0e-8,"MEAN_MOTION_DDOT":0},{"OBJECT_NAME":"ONEWEB-0605","OBJECT_ID":"2022-166AD","EPOCH":"2025-12-23T01:37:53.702688","MEAN_MOTION":13.21826535,"ECCENTRICITY":0.00018403,"INCLINATION":87.9222,"RA_OF_ASC_NODE":279.1208,"ARG_OF_PERICENTER":96.1943,"MEAN_ANOMALY":263.9401,"EPHEMERIS_TYPE":0,"CLASSIFICATION_TYPE":"U","NORAD_CAT_ID":54669,"ELEMENT_SET_NO":999,"REV_AT_EPOCH":14824,"BSTAR":-3.5951262e-5,"MEAN_MOTION_DOT":-2.0e-8,"MEAN_MOTION_DDOT":0},{"OBJECT_NAME":"ONEWEB-0606","OBJECT_ID":"2022-166AE","EPOCH":"2025-12-23T03:57:41.838048","MEAN_MOTION":13.21826305,"ECCENTRICITY":0.00015424,"INCLINATION":87.9219,"RA_OF_ASC_NODE":279.1134,"ARG_OF_PERICENTER":75.8435,"MEAN_ANOMALY":284.287,"EPHEMERIS_TYPE":0,"CLASSIFICATION_TYPE":"U","NORAD_CAT_ID":54670,"ELEMENT_SET_NO":999,"REV_AT_EPOCH":14831,"BSTAR":-6.668251e-5,"MEAN_MOTION_DOT":-1.5e-7,"MEAN_MOTION_DDOT":0},{"OBJECT_NAME":"ONEWEB-0607","OBJECT_ID":"2022-166AF","EPOCH":"2025-12-23T04:59:18.384288","MEAN_MOTION":13.21826852,"ECCENTRICITY":0.00018782,"INCLINATION":87.9225,"RA_OF_ASC_NODE":279.0678,"ARG_OF_PERICENTER":77.8621,"MEAN_ANOMALY":282.2724,"EPHEMERIS_TYPE":0,"CLASSIFICATION_TYPE":"U","NORAD_CAT_ID":54671,"ELEMENT_SET_NO":999,"REV_AT_EPOCH":14829,"BSTAR":0.00033919682,"MEAN_MOTION_DOT":1.53e-6,"MEAN_MOTION_DDOT":0},{"OBJECT_NAME":"ONEWEB-0608","OBJECT_ID":"2022-166AG","EPOCH":"2025-12-23T05:08:47.356800","MEAN_MOTION":13.21825594,"ECCENTRICITY":0.00020171,"INCLINATION":87.9229,"RA_OF_ASC_NODE":279.0556,"ARG_OF_PERICENTER":88.8569,"MEAN_ANOMALY":271.2796,"EPHEMERIS_TYPE":0,"CLASSIFICATION_TYPE":"U","NORAD_CAT_ID":54672,"ELEMENT_SET_NO":999,"REV_AT_EPOCH":14830,"BSTAR":0.00022423884,"MEAN_MOTION_DOT":1.06e-6,"MEAN_MOTION_DDOT":0},{"OBJECT_NAME":"ONEWEB-0610","OBJECT_ID":"2022-166AH","EPOCH":"2025-12-23T04:40:21.198720","MEAN_MOTION":13.21825253,"ECCENTRICITY":0.00021327,"INCLINATION":87.9225,"RA_OF_ASC_NODE":279.0911,"ARG_OF_PERICENTER":91.2141,"MEAN_ANOMALY":268.9238,"EPHEMERIS_TYPE":0,"CLASSIFICATION_TYPE":"U","NORAD_CAT_ID":54673,"ELEMENT_SET_NO":999,"REV_AT_EPOCH":14820,"BSTAR":0.00019627299,"MEAN_MOTION_DOT":9.4e-7,"MEAN_MOTION_DDOT":0}]
